[
    {
        "CCSDS_OMM_VERS": "2.0",
        "COMMENT": "GENERATED VIA SPACE-TRACK.ORG API",
        "CREATION_DATE": "2023-07-11T06:36:12",
        "ORIGINATOR": "18 SPCS",
        "OBJECT_NAME": "VANGUARD 1",
        "OBJECT_ID": "1958-002B",
        "CENTER_NAME": "EARTH",
        "REF_FRAME": "TEME",
        "TIME_SYSTEM": "UTC",
        "MEAN_ELEMENT_THEORY": "SGP4",
        "EPOCH": "2023-07-10T20:45:27.985536",
        "MEAN_MOTION": "10.85080815",
        "ECCENTRICITY": "0.18469110",
        "INCLINATION": "34.2535",
        "RA_OF_ASC_NODE": "22.3162",
        "ARG_OF_PERICENTER": "346.1134",
        "MEAN_ANOMALY": "9.4619",
        "EPHEMERIS_TYPE": "0",
        "CLASSIFICATION_TYPE": "U",
        "NORAD_CAT_ID": "5",
        "ELEMENT_SET_NO": "999",
        "REV_AT_EPOCH": "32683",
        "BSTAR": "-0.00006545500000",
        "MEAN_MOTION_DOT": "-0.00000056",
        "MEAN_MOTION_DDOT": "0.0000000000000",
        "SEMIMAJOR_AXIS": "8618.409",
        "PERIOD": "132.709",
        "APOAPSIS": "3832.018",
        "PERIAPSIS": "648.531",
        "OBJECT_TYPE": "PAYLOAD",
        "RCS_SIZE": "SMALL",
        "COUNTRY_CODE": "US",
        "LAUNCH_DATE": "1958-03-17",
        "SITE": "AFETR",
        "DECAY_DATE": null,
        "FILE": "3954912",
        "GP_ID": "234843360",
        "TLE_LINE0": "0 VANGUARD 1",
        "TLE_LINE1": "1     5U 58002B   23191.86490724 -.00000056  00000-0 -65455-4 0  9998",
        "TLE_LINE2": "2     5  34.2535  22.3162 1846911 346.1134   9.4619 10.85080815326834"
    },
    {
        "CCSDS_OMM_VERS": "2.0",
        "COMMENT": "GENERATED VIA SPACE-TRACK.ORG API",
        "CREATION_DATE": "2023-07-12T22:36:13",
        "ORIGINATOR": "18 SPCS",
        "OBJECT_NAME": "VANGUARD 2",
        "OBJECT_ID": "1959-001A",
        "CENTER_NAME": "EARTH",
        "REF_FRAME": "TEME",
        "TIME_SYSTEM": "UTC",
        "MEAN_ELEMENT_THEORY": "SGP4",
        "EPOCH": "2023-07-12T21:21:56.151072",
        "MEAN_MOTION": "11.87230779",
        "ECCENTRICITY": "0.14614580",
        "INCLINATION": "32.8638",
        "RA_OF_ASC_NODE": "166.0420",
        "ARG_OF_PERICENTER": "100.7963",
        "MEAN_ANOMALY": "276.0007",
        "EPHEMERIS_TYPE": "0",
        "CLASSIFICATION_TYPE": "U",
        "NORAD_CAT_ID": "11",
        "ELEMENT_SET_NO": "999",
        "REV_AT_EPOCH": "74979",
        "BSTAR": "0.00039601000000",
        "MEAN_MOTION_DOT": "0.00000743",
        "MEAN_MOTION_DDOT": "0.0000000000000",
        "SEMIMAJOR_AXIS": "8116.680",
        "PERIOD": "121.291",
        "APOAPSIS": "2924.763",
        "PERIAPSIS": "552.326",
        "OBJECT_TYPE": "PAYLOAD",
        "RCS_SIZE": "MEDIUM",
        "COUNTRY_CODE": "US",
        "LAUNCH_DATE": "1959-02-17",
        "SITE": "AFETR",
        "DECAY_DATE": null,
        "FILE": "3956360",
        "GP_ID": "234877262",
        "TLE_LINE0": "0 VANGUARD 2",
        "TLE_LINE1": "1    11U 59001A   23193.89023323  .00000743  00000-0  39601-3 0  9991",
        "TLE_LINE2": "2    11  32.8638 166.0420 1461458 100.7963 276.0007 11.87230779749791"
    },
    {
        "CCSDS_OMM_VERS": "2.0",
        "COMMENT": "GENERATED VIA SPACE-TRACK.ORG API",
        "CREATION_DATE": "2023-07-12T06:36:13",
        "ORIGINATOR": "18 SPCS",
        "OBJECT_NAME": "VANGUARD R\/B",
        "OBJECT_ID": "1959-001B",
        "CENTER_NAME": "EARTH",
        "REF_FRAME": "TEME",
        "TIME_SYSTEM": "UTC",
        "MEAN_ELEMENT_THEORY": "SGP4",
        "EPOCH": "2023-07-11T22:33:48.767328",
        "MEAN_MOTION": "11.45698048",
        "ECCENTRICITY": "0.16606690",
        "INCLINATION": "32.9073",
        "RA_OF_ASC_NODE": "32.0228",
        "ARG_OF_PERICENTER": "204.8568",
        "MEAN_ANOMALY": "146.2164",
        "EPHEMERIS_TYPE": "0",
        "CLASSIFICATION_TYPE": "U",
        "NORAD_CAT_ID": "12",
        "ELEMENT_SET_NO": "999",
        "REV_AT_EPOCH": "65085",
        "BSTAR": "0.00042362000000",
        "MEAN_MOTION_DOT": "0.00000754",
        "MEAN_MOTION_DDOT": "0.0000000000000",
        "SEMIMAJOR_AXIS": "8311.672",
        "PERIOD": "125.688",
        "APOAPSIS": "3313.831",
        "PERIAPSIS": "553.243",
        "OBJECT_TYPE": "ROCKET BODY",
        "RCS_SIZE": "MEDIUM",
        "COUNTRY_CODE": "US",
        "LAUNCH_DATE": "1959-02-17",
        "SITE": "AFETR",
        "DECAY_DATE": null,
        "FILE": "3955730",
        "GP_ID": "234862239",
        "TLE_LINE0": "0 VANGUARD R\/B",
        "TLE_LINE1": "1    12U 59001B   23192.94014777  .00000754  00000-0  42362-3 0  9990",
        "TLE_LINE2": "2    12  32.9073  32.0228 1660669 204.8568 146.2164 11.45698048650857"
    },
    {
        "CCSDS_OMM_VERS": "2.0",
        "COMMENT": "GENERATED VIA SPACE-TRACK.ORG API",
        "CREATION_DATE": "2023-07-11T06:46:13",
        "ORIGINATOR": "18 SPCS",
        "OBJECT_NAME": "VANGUARD R\/B",
        "OBJECT_ID": "1958-002A",
        "CENTER_NAME": "EARTH",
        "REF_FRAME": "TEME",
        "TIME_SYSTEM": "UTC",
        "MEAN_ELEMENT_THEORY": "SGP4",
        "EPOCH": "2023-07-11T03:31:50.728224",
        "MEAN_MOTION": "10.48848724",
        "ECCENTRICITY": "0.20230640",
        "INCLINATION": "34.2723",
        "RA_OF_ASC_NODE": "164.1374",
        "ARG_OF_PERICENTER": "275.0368",
        "MEAN_ANOMALY": "62.3825",
        "EPHEMERIS_TYPE": "0",
        "CLASSIFICATION_TYPE": "U",
        "NORAD_CAT_ID": "16",
        "ELEMENT_SET_NO": "999",
        "REV_AT_EPOCH": "57627",
        "BSTAR": "0.00022093000000",
        "MEAN_MOTION_DOT": "0.00000176",
        "MEAN_MOTION_DDOT": "0.0000000000000",
        "SEMIMAJOR_AXIS": "8815.764",
        "PERIOD": "137.293",
        "APOAPSIS": "4221.114",
        "PERIAPSIS": "654.143",
        "OBJECT_TYPE": "ROCKET BODY",
        "RCS_SIZE": "MEDIUM",
        "COUNTRY_CODE": "US",
        "LAUNCH_DATE": "1958-03-17",
        "SITE": "AFETR",
        "DECAY_DATE": null,
        "FILE": "3954991",
        "GP_ID": "234844785",
        "TLE_LINE0": "0 VANGUARD R\/B",
        "TLE_LINE1": "1    16U 58002A   23192.14711491  .00000176  00000-0  22093-3 0  9990",
        "TLE_LINE2": "2    16  34.2723 164.1374 2023064 275.0368  62.3825 10.48848724576273"
    },
    {
        "CCSDS_OMM_VERS": "2.0",
        "COMMENT": "GENERATED VIA SPACE-TRACK.ORG API",
        "CREATION_DATE": "2023-07-12T06:46:13",
        "ORIGINATOR": "18 SPCS",
        "OBJECT_NAME": "VANGUARD 3",
        "OBJECT_ID": "1959-007A",
        "CENTER_NAME": "EARTH",
        "REF_FRAME": "TEME",
        "TIME_SYSTEM": "UTC",
        "MEAN_ELEMENT_THEORY": "SGP4",
        "EPOCH": "2023-07-12T03:42:28.546848",
        "MEAN_MOTION": "11.57689301",
        "ECCENTRICITY": "0.16577560",
        "INCLINATION": "33.3402",
        "RA_OF_ASC_NODE": "149.9709",
        "ARG_OF_PERICENTER": "91.0980",
        "MEAN_ANOMALY": "287.9108",
        "EPHEMERIS_TYPE": "0",
        "CLASSIFICATION_TYPE": "U",
        "NORAD_CAT_ID": "20",
        "ELEMENT_SET_NO": "999",
        "REV_AT_EPOCH": "36025",
        "BSTAR": "0.00055622000000",
        "MEAN_MOTION_DOT": "0.00001357",
        "MEAN_MOTION_DDOT": "0.0000000000000",
        "SEMIMAJOR_AXIS": "8254.178",
        "PERIOD": "124.386",
        "APOAPSIS": "3244.384",
        "PERIAPSIS": "507.702",
        "OBJECT_TYPE": "PAYLOAD",
        "RCS_SIZE": "MEDIUM",
        "COUNTRY_CODE": "US",
        "LAUNCH_DATE": "1959-09-18",
        "SITE": "AFETR",
        "DECAY_DATE": null,
        "FILE": "3955744",
        "GP_ID": "234862601",
        "TLE_LINE0": "0 VANGUARD 3",
        "TLE_LINE1": "1    20U 59007A   23193.15449707  .00001357  00000-0  55622-3 0  9997",
        "TLE_LINE2": "2    20  33.3402 149.9709 1657756  91.0980 287.9108 11.57689301360254"
    },
    {
        "CCSDS_OMM_VERS": "2.0",
        "COMMENT": "GENERATED VIA SPACE-TRACK.ORG API",
        "CREATION_DATE": "2023-07-12T22:36:13",
        "ORIGINATOR": "18 SPCS",
        "OBJECT_NAME": "EXPLORER 7",
        "OBJECT_ID": "1959-009A",
        "CENTER_NAME": "EARTH",
        "REF_FRAME": "TEME",
        "TIME_SYSTEM": "UTC",
        "MEAN_ELEMENT_THEORY": "SGP4",
        "EPOCH": "2023-07-12T17:39:51.256224",
        "MEAN_MOTION": "15.01282605",
        "ECCENTRICITY": "0.01252030",
        "INCLINATION": "50.2798",
        "RA_OF_ASC_NODE": "232.5272",
        "ARG_OF_PERICENTER": "230.1793",
        "MEAN_ANOMALY": "128.8084",
        "EPHEMERIS_TYPE": "0",
        "CLASSIFICATION_TYPE": "U",
        "NORAD_CAT_ID": "22",
        "ELEMENT_SET_NO": "999",
        "REV_AT_EPOCH": "39312",
        "BSTAR": "0.00035251000000",
        "MEAN_MOTION_DOT": "0.00005117",
        "MEAN_MOTION_DDOT": "0.0000000000000",
        "SEMIMAJOR_AXIS": "6941.077",
        "PERIOD": "95.918",
        "APOAPSIS": "649.847",
        "PERIAPSIS": "476.038",
        "OBJECT_TYPE": "PAYLOAD",
        "RCS_SIZE": "MEDIUM",
        "COUNTRY_CODE": "US",
        "LAUNCH_DATE": "1959-10-13",
        "SITE": "AFETR",
        "DECAY_DATE": null,
        "FILE": "3956303",
        "GP_ID": "234875957",
        "TLE_LINE0": "0 EXPLORER 7",
        "TLE_LINE1": "1    22U 59009A   23193.73600991  .00005117  00000-0  35251-3 0  9993",
        "TLE_LINE2": "2    22  50.2798 232.5272 0125203 230.1793 128.8084 15.01282605393127"
    }]